{
    "links": {
        "self": "http://www.neowsapp.com/rest/v1/neo/3716629?api_key=iIulBulltgU6a56xZRHN4H3l9WmuAYTsLGpBGhQ2"
    },
    "id": "3716629",
    "neo_reference_id": "3716629",
    "name": "(2015 HH9)",
    "designation": "2015 HH9",
    "nasa_jpl_url": "http://ssd.jpl.nasa.gov/sbdb.cgi?sstr=3716629",
    "absolute_magnitude_h": 25.9,
    "estimated_diameter": {
        "kilometers": {
            "estimated_diameter_min": 0.0175612318,
            "estimated_diameter_max": 0.0392681082
        },
        "meters": {
            "estimated_diameter_min": 17.561231848,
            "estimated_diameter_max": 39.2681081809
        },
        "miles": {
            "estimated_diameter_min": 0.0109120402,
            "estimated_diameter_max": 0.0244000636
        },
        "feet": {
            "estimated_diameter_min": 57.6155918963,
            "estimated_diameter_max": 128.8323800441
        }
    },
    "is_potentially_hazardous_asteroid": false,
    "close_approach_data": [
        {
            "close_approach_date": "2015-04-22",
            "close_approach_date_full": "2015-Apr-22 14:52",
            "epoch_date_close_approach": 1429714320000,
            "relative_velocity": {
                "kilometers_per_second": "6.2434263719",
                "kilometers_per_hour": "22476.3349389062",
                "miles_per_hour": "13965.9204513442"
            },
            "miss_distance": {
                "astronomical": "0.0676122575",
                "lunar": "26.3011681675",
                "kilometers": "10114649.707891525",
                "miles": "6284951.891392045"
            },
            "orbiting_body": "Earth"
        }
    ],
    "orbital_data": {
        "orbit_id": "5",
        "orbit_determination_date": "2018-02-10 07:06:36",
        "first_observation_date": "2015-04-17",
        "last_observation_date": "2015-04-30",
        "data_arc_in_days": 13,
        "observations_used": 18,
        "orbit_uncertainty": "8",
        "minimum_orbit_intersection": ".0675917",
        "jupiter_tisserand_invariant": "3.319",
        "epoch_osculation": "2457131.5",
        "eccentricity": ".5493191109804086",
        "semi_major_axis": "2.375452817355507",
        "inclination": "1.735915725476898",
        "ascending_node_longitude": "238.3061244594785",
        "orbital_period": "1337.266729781433",
        "perihelion_distance": "1.070571187549873",
        "perihelion_argument": "329.9699468657572",
        "aphelion_distance": "3.680334447161141",
        "perihelion_time": "2457131.909146612771",
        "mean_anomaly": "359.8898553464935",
        "mean_motion": ".2692058300581811",
        "equinox": "J2000",
        "orbit_class": {
            "orbit_class_type": "AMO",
            "orbit_class_description": "Near-Earth asteroid orbits similar to that of 1221 Amor",
            "orbit_class_range": "1.017 AU < q (perihelion) < 1.3 AU"
        }
    },
    "is_sentry_object": false
}